ORBCOMM FM33            
1 25983U 99065D   25223.10719619  .00000803  00000+0  29703-3 0  9998
2 25983  45.0285  97.8314 0009033 343.0818  16.9729 14.40090170343984
ORBCOMM FM36            
1 25984U 99065E   25223.28268576  .00001186  00000+0  43308-3 0  9991
2 25984  45.0379 189.7766 0003954 256.9049 103.1359 14.38226088342944
ORBCOMM FM35            
1 25985U 99065F   25223.37154424  .00000944  00000+0  36168-3 0  9995
2 25985  45.0381 194.8286 0005993 308.6957  51.3355 14.37187298342915
ORBCOMM FM34            
1 25986U 99065G   25223.40634231  .00000818  00000+0  31947-3 0  9999
2 25986  45.0376 195.1223 0005817 276.1434  83.8751 14.37199585342887
ORBCOMM FM38            
1 33060U 08031A   25223.25076814  .00001724  00000+0  24468-3 0  9991
2 33060  48.4412  52.8012 0005278 274.6473  85.3840 14.81494998922918
ORBCOMM FM41            
1 33061U 08031B   25223.30143247  .00001497  00000+0  21824-3 0  9993
2 33061  48.4447  60.5293 0004522 260.0311 270.0250 14.81073000922842
ORBCOMM FM39            
1 33063U 08031D   25223.33498067  .00001410  00000+0  21368-3 0  9999
2 33063  48.4408  92.9925 0006998 233.8565 126.1703 14.79714363922384
